1 45691U 20035AL  22365.08543733  .00007136  00000-0  49743-3 0  9993
2 45691  53.0528 244.7358 0001398  96.8280 263.2868 15.06404787143349
1 45691U 20035AL  22365.68255339  .00008829  00000-0  61060-3 0  9997
2 45691  53.0527 242.0551 0001388  95.6604 264.4544 15.06417558143434
1 45691U 20035AL  23001.08063659  .00002335  00000-0  17562-3 0  9995
2 45691  53.0529 240.2685 0001329  94.9542 265.1599 15.06400666143487
1 45691U 20035AL  23001.34603123  .00001254  00000-0  10308-3 0  9990
2 45691  53.0532 239.0763 0001560  92.9155 267.2012 15.06388979143530
1 45691U 20035AL  23001.34603123  .00001254  00000-0  10308-3 0  9990
2 45691  53.0532 239.0763 0001560  92.9155 267.2012 15.06388979143529
1 45691U 20035AL  23001.94315012 -.00001900  00000-0 -10871-3 0  9998
2 45691  53.0524 236.3966 0001387  96.4816 263.6331 15.06393147143623
1 45691U 20035AL  23002.60661680 -.00001113  00000-0 -55861-4 0  9992
2 45691  53.0536 233.4179 0001299  95.4095 264.7043 15.06402749143711
1 45691U 20035AL  23002.67296373  .00000668  00000-0  63713-4 0  9999
2 45691  53.0535 233.1201 0001179  87.0335 273.0789 15.06396398143738
1 45691U 20035AL  23003.33643362  .00001222  00000-0  10095-3 0  9998
2 45691  53.0534 230.1417 0001320  95.1603 264.9537 15.06393957143838
1 45691U 20035AL  23003.33643362  .00001222  00000-0  10095-3 0  9998
2 45691  53.0534 230.1417 0001320  95.1603 264.9537 15.06393957143827
1 45691U 20035AL  23004.33164836 -.00000340  00000-0 -39720-5 0  9993
2 45691  53.0533 225.6735 0001231  93.9967 266.1163 15.06386517143988
1 45691U 20035AL  23004.33164836 -.00000340  00000-0 -39720-5 0  9993
2 45691  53.0533 225.6735 0001231  93.9967 266.1163 15.06386517143977
1 45691U 20035AL  23004.86242717  .00001010  00000-0  86700-4 0  9998
2 45691  53.0530 223.2901 0001162  95.3917 264.7205 15.06381192144063
1 45691U 20035AL  23004.99511788 -.00001121  00000-0 -56363-4 0  9996
2 45691  53.0530 222.6944 0001239  93.3160 266.7971 15.06391467144086
1 45691U 20035AL  23005.85762397  .00000670  00000-0  63867-4 0  9999
2 45691  53.0537 218.8214 0001167  95.9385 264.1737 15.06394244144210
1 45691U 20035AL  23005.85762397  .00000670  00000-0  63867-4 0  9999
2 45691  53.0537 218.8214 0001167  95.9385 264.1737 15.06394244144209
1 45691U 20035AL  23006.91917041  .00001742  00000-0  13578-3 0  9999
2 45691  53.0529 214.0577 0001149  87.7696 272.3424 15.06400620144372
1 45691U 20035AL  23006.91917041  .00001742  00000-0  13578-3 0  9999
2 45691  53.0529 214.0577 0001149  87.7696 272.3424 15.06400620144361
1 45691U 20035AL  23007.84800316  .00003305  00000-0  24052-3 0  9994
2 45691  53.0540 209.8863 0000956  89.7732 270.3366 15.06422395144515
1 45691U 20035AL  23007.84800316  .00003305  00000-0  24052-3 0  9994
2 45691  53.0540 209.8863 0000956  89.7732 270.3366 15.06422395144504
1 45691U 20035AL  23008.24609022  .00001490  00000-0  11883-3 0  9991
2 45691  53.0529 208.1014 0000945  90.3663 269.7434 15.06410525144566
1 45691U 20035AL  23008.51148329 -.00000132  00000-0  10063-4 0  9992
2 45691  53.0547 206.9105 0001700  99.8328 260.2853 15.06405078144619
1 45691U 20035AL  23008.51148329 -.00000132  00000-0  10063-4 0  9992
2 45691  53.0547 206.9105 0001700  99.8328 260.2853 15.06405078144608
1 45691U 20035AL  23008.84322946 -.00001882  00000-0 -10751-3 0  9994
2 45691  53.0530 205.4203 0001013  85.1203 274.9902 15.06391874144661
1 45691U 20035AL  23008.84322946 -.00001882  00000-0 -10751-3 0  9994
2 45691  53.0530 205.4203 0001013  85.1203 274.9902 15.06391874144650
1 45691U 20035AL  23009.24130899 -.00002574  00000-0 -15402-3 0  9990
2 45691  53.0527 203.6330 0001113  62.6035 297.5067 15.06396670144721
1 45691U 20035AL  23009.90477650 -.00002517  00000-0 -15015-3 0  9999
2 45691  53.0528 200.6541 0001011  89.4195 270.6910 15.06397499144824
1 45691U 20035AL  23009.90477650 -.00002517  00000-0 -15015-3 0  9999
2 45691  53.0528 200.6541 0001011  89.4195 270.6910 15.06397499144813
1 45691U 20035AL  23010.50191948  .00000089  00000-0  24867-4 0  9996
2 45691  53.0525 197.9739 0001239  79.2615 280.8513 15.06368376144918
1 45691U 20035AL  23010.50191948  .00000089  00000-0  24867-4 0  9996
2 45691  53.0525 197.9739 0001239  79.2615 280.8513 15.06368376144907
1 45691U 20035AL  23010.76731693 -.00000646  00000-0 -24507-4 0  9993
2 45691  53.0537 196.7798 0001021  85.9609 274.1497 15.06362496144957
1 45691U 20035AL  23010.76731693 -.00000646  00000-0 -24507-4 0  9993
2 45691  53.0537 196.7798 0001021  85.9609 274.1497 15.06362496144946
1 45691U 20035AL  23011.23173426  .00001707  00000-0  13349-3 0  9998
2 45691  53.0513 194.6964 0001208  88.5838 271.5289 15.06382940145028
1 45691U 20035AL  23011.23173426  .00001707  00000-0  13349-3 0  9998
2 45691  53.0513 194.6964 0001208  88.5838 271.5289 15.06382940145017
1 45691U 20035AL  23011.89520175  .00002207  00000-0  16701-3 0  9998
2 45691  53.0516 191.7192 0001081  83.4035 276.7076 15.06392881145121
1 45691U 20035AL  23012.22693635  .00003823  00000-0  27543-3 0  9999
2 45691  53.0512 190.2312 0001291  77.5427 282.5706 15.06393299145160
1 45691U 20035AL  23012.75771789  .00011661  00000-0  80106-3 0  9997
2 45691  53.0518 187.8471 0001266  78.3591 281.7540 15.06372203145245
1 45691U 20035AL  23012.89041327  .00012120  00000-0  83126-3 0  9996
2 45691  53.0511 187.2513 0001225  77.1431 282.9694 15.06394066145271
1 45691U 20035AL  23012.89041327  .00012120  00000-0  83126-3 0  9996
2 45691  53.0511 187.2513 0001225  77.1431 282.9694 15.06394066145260
1 45691U 20035AL  23013.75290404  .00003257  00000-0  23734-3 0  9994
2 45691  53.0519 183.3783 0001152  84.0476 276.0644 15.06414152145403
1 45691U 20035AL  23013.75290404  .00003257  00000-0  23734-3 0  9994
2 45691  53.0519 183.3783 0001152  84.0476 276.0644 15.06414152145391
1 45691U 20035AL  23014.54906412 -.00000939  00000-0 -44131-4 0  9996
2 45691  53.0520 179.8039 0001191  95.1514 264.9611 15.06405201145515
1 45691U 20035AL  23015.41157499 -.00001697  00000-0 -95041-4 0  9994
2 45691  53.0520 175.9329 0001268  88.6375 271.4759 15.06396744145642
1 45691U 20035AL  23015.61061700 -.00000996  00000-0 -47995-4 0  9991
2 45691  53.0524 175.0399 0001139  76.5590 283.5526 15.06395529145686
1 45691U 20035AL  23015.74330803  .00000109  00000-0  26203-4 0  9991
2 45691  53.0521 174.4439 0001196  81.4856 278.6268 15.06400137145707
1 45691U 20035AL  23016.53947098  .00001643  00000-0  12915-3 0  9997
2 45691  53.0521 170.8687 0001270  96.0996 264.0138 15.06399795145816
1 45691U 20035AL  23016.73850942  .00002449  00000-0  18319-3 0  9999
2 45691  53.0523 169.9753 0001203  93.8875 266.2252 15.06403988145853
1 45691U 20035AL  23017.13659654  .00001407  00000-0  11332-3 0  9992
2 45691  53.0524 168.1887 0001354  84.3097 275.8046 15.06394936145906
1 45691U 20035AL  23017.53468286  .00000114  00000-0  26559-4 0  9997
2 45691  53.0523 166.4016 0001328  84.2647 275.8494 15.06388232145977
1 45691U 20035AL  23017.80006605  .00000495  00000-0  52100-4 0  9993
2 45691  53.0536 165.2091 0001295  87.3973 272.7164 15.06397677146019
1 45691U 20035AL  23018.33084087  .00001292  00000-0  10561-3 0  9992
2 45691  53.0531 162.8267 0001309  92.6658 267.4481 15.06397507146089
1 45691U 20035AL  23018.52987652  .00002195  00000-0  16619-3 0  9996
2 45691  53.0532 161.9330 0001296  93.0660 267.0478 15.06403760146120
1 45691U 20035AL  23018.66256616  .00002859  00000-0  21069-3 0  9992
2 45691  53.0532 161.3372 0001279  93.0487 267.0648 15.06408628146147
1 45691U 20035AL  23018.66256616  .00002859  00000-0  21069-3 0  9992
2 45691  53.0532 161.3372 0001279  93.0487 267.0648 15.06408628146136
1 45691U 20035AL  23019.52508752  .00001864  00000-0  14403-3 0  9998
2 45691  53.0542 157.4645 0001312  91.1858 268.9281 15.06394354146273
1 45691U 20035AL  23019.59143310  .00001987  00000-0  15224-3 0  9998
2 45691  53.0524 157.1676 0001252  96.1406 263.9726 15.06396956146270
1 45691U 20035AL  23020.38759452  .00000848  00000-0  75787-4 0  9993
2 45691  53.0531 153.5941 0001253  81.5787 278.5344 15.06399802146400
1 45691U 20035AL  23020.65297568  .00003209  00000-0  23416-3 0  9993
2 45691  53.0530 152.4020 0001264  94.2312 265.8822 15.06410107146437
1 45691U 20035AL  23021.05106121  .00001880  00000-0  14510-3 0  9990
2 45691  53.0539 150.6137 0002301  76.5780 283.5465 15.06401802146498
1 45691U 20035AL  23022.57703833  .00000491  00000-0  51868-4 0  9996
2 45691  53.0542 143.7671 0001359 104.3067 255.8073 15.06401345146723
1 45691U 20035AL  23023.30686163  .00000564  00000-0  56739-4 0  9997
2 45691  53.0541 140.4920 0001296  88.5458 271.5679 15.06390797146837
1 45691U 20035AL  23024.56744767  .00003489  00000-0  25298-3 0  9995
2 45691  53.0532 134.8313 0001330  89.9439 270.1703 15.06406482147027
1 45691U 20035AL  23025.23092001  .00002915  00000-0  21450-3 0  9996
2 45691  53.0535 131.8535 0001487  97.0343 263.0815 15.06398543147124
1 45691U 20035AL  23025.56265223  .00002468  00000-0  18452-3 0  9991
2 45691  53.0531 130.3634 0001327  97.1531 262.9609 15.06402218147187
1 45691U 20035AL  23026.55785369  .00000897  00000-0  79093-4 0  9992
2 45691  53.0533 125.8954 0001458 103.2775 256.8377 15.06402689147330
1 45691U 20035AL  23026.55785369  .00000897  00000-0  79093-4 0  9992
2 45691  53.0533 125.8954 0001458 103.2775 256.8377 15.06402689147329
1 45691U 20035AL  23027.08863416  .00000944  00000-0  82239-4 0  9990
2 45691  53.0540 123.5137 0001422  94.7918 265.3234 15.06394271147402
1 45691U 20035AL  23027.55305948  .00001330  00000-0  10817-3 0  9995
2 45691  53.0537 121.4279 0001390  99.2072 260.9074 15.06397782147488
1 45691U 20035AL  23028.21653511  .00000268  00000-0  36868-4 0  9995
2 45691  53.0537 118.4498 0001285  89.7270 270.3866 15.06390589147576
1 45691U 20035AL  23028.54826330  .00001326  00000-0  10792-3 0  9995
2 45691  53.0537 116.9609 0001289  87.5217 272.5919 15.06398712147629
1 45691U 20035AL  23029.54347325  .00000587  00000-0  58283-4 0  9994
2 45691  53.0536 112.4941 0001362  92.3864 267.7281 15.06391740147770
1 45691U 20035AL  23029.60981802  .00000003  00000-0  19069-4 0  9997
2 45691  53.0539 112.1951 0001191  83.7151 276.3973 15.06396369147792
1 45691U 20035AL  23030.47232572  .00001632  00000-0  12842-3 0  9997
2 45691  53.0537 108.3233 0001187  75.4189 284.6931 15.06396471147929
1 45691U 20035AL  23030.93675135  .00000775  00000-0  70907-4 0  9998
2 45691  53.0538 106.2383 0001183  84.4495 275.6628 15.06400650147983
1 45691U 20035AL  23031.20214463  .00001077  00000-0  91209-4 0  9996
2 45691  53.0534 105.0475 0001224  82.8103 277.3025 15.06391155148027
1 45691U 20035AL  23031.46752960  .00000697  00000-0  65670-4 0  9993
2 45691  53.0533 103.8559 0001231  84.7072 275.4057 15.06397110148075
